[{"OBJECT_NAME":"STARLINK-5497","OBJECT_ID":"2023-021B","EPOCH":"2026-03-09T19:27:49.992192","MEAN_MOTION":14.98328534,"ECCENTRICITY":0.00018526,"INCLINATION":70.0001,"RA_OF_ASC_NODE":204.2603,"ARG_OF_PERICENTER":277.321,"MEAN_ANOMALY":82.7738,"EPHEMERIS_TYPE":0,"CLASSIFICATION_TYPE":"U","NORAD_CAT_ID":55629,"ELEMENT_SET_NO":999,"REV_AT_EPOCH":16831,"BSTAR":0.0002680748,"MEAN_MOTION_DOT":3.107e-5,"MEAN_MOTION_DDOT":0},{"OBJECT_NAME":"AIST-1 (RS41)","OBJECT_ID":"2013-078C","EPOCH":"2026-03-09T23:05:53.785248","MEAN_MOTION":14.95763496,"ECCENTRICITY":0.00150774,"INCLINATION":82.4188,"RA_OF_ASC_NODE":6.9784,"ARG_OF_PERICENTER":249.0877,"MEAN_ANOMALY":110.8731,"EPHEMERIS_TYPE":0,"CLASSIFICATION_TYPE":"U","NORAD_CAT_ID":39492,"ELEMENT_SET_NO":999,"REV_AT_EPOCH":66041,"BSTAR":0.00019220788,"MEAN_MOTION_DOT":2.171e-5,"MEAN_MOTION_DDOT":0}]
